[{"OBJECT_NAME":"LAPAN-A3","OBJECT_ID":"2016-040E","EPOCH":"2026-03-09T23:01:57.724896","MEAN_MOTION":15.3238951,"ECCENTRICITY":0.00109839,"INCLINATION":97.1488,"RA_OF_ASC_NODE":68.4254,"ARG_OF_PERICENTER":22.062,"MEAN_ANOMALY":338.1093,"EPHEMERIS_TYPE":0,"CLASSIFICATION_TYPE":"U","NORAD_CAT_ID":41603,"ELEMENT_SET_NO":999,"REV_AT_EPOCH":53961,"BSTAR":0.00017567445,"MEAN_MOTION_DOT":5.428e-5,"MEAN_MOTION_DDOT":0},{"OBJECT_NAME":"STARLINK-32671","OBJECT_ID":"2024-229T","EPOCH":"2026-03-09T22:24:25.866144","MEAN_MOTION":15.27556342,"ECCENTRICITY":0.00027458,"INCLINATION":43.0043,"RA_OF_ASC_NODE":269.7602,"ARG_OF_PERICENTER":244.2895,"MEAN_ANOMALY":115.7673,"EPHEMERIS_TYPE":0,"CLASSIFICATION_TYPE":"U","NORAD_CAT_ID":62209,"ELEMENT_SET_NO":999,"REV_AT_EPOCH":7059,"BSTAR":0.00092221139,"MEAN_MOTION_DOT":0.00025185,"MEAN_MOTION_DDOT":0}]
